{"type": "FeatureCollection", "features": [
  {"type": "Feature", "properties": {"name": "point 1"}, "geometry": {"type": "Point", "coordinates": [12.450066, 41.900016]}},
  {"type": "Feature", "properties": {"name": "point 2"}, "geometry": {"type": "Point", "coordinates": [12.450332, 41.900159]}},
  {"type": "Feature", "properties": {"name": "point 3"}, "geometry": {"type": "Point", "coordinates": [12.450202, 41.900152]}},
  {"type": "Feature", "properties": {"name": "point 4"}, "geometry": {"type": "Point", "coordinates": [12.450017, 41.899721]}},
  {"type": "Feature", "properties": {"name": "point 5"}, "geometry": {"type": "Point", "coordinates": [12.449639, 41.899781]}},
  {"type": "Feature", "properties": {"name": "point 6"}, "geometry": {"type": "Point", "coordinates": [12.44983, 41.900398]}},
  {"type": "Feature", "properties": {"name": "point 7"}, "geometry": {"type": "Point", "coordinates": [12.450168, 41.900137]}},
  {"type": "Feature", "properties": {"name": "point 8"}, "geometry": {"type": "Point", "coordinates": [12.44989, 41.899805]}},
  {"type": "Feature", "properties": {"name": "point 9"}, "geometry": {"type": "Point", "coordinates": [12.449684, 41.90032]}},
  {"type": "Feature", "properties": {"name": "point 10"}, "geometry": {"type": "Point", "coordinates": [12.45028, 41.900272]}},
  {"type": "Feature", "properties": {"name": "point 11"}, "geometry": {"type": "Point", "coordinates": [12.449961, 41.899825]}},
  {"type": "Feature", "properties": {"name": "point 12"}, "geometry": {"type": "Point", "coordinates": [12.450273, 41.899636]}},
  {"type": "Feature", "properties": {"name": "point 13"}, "geometry": {"type": "Point", "coordinates": [12.472213, 41.905371]}},
  {"type": "Feature", "properties": {"name": "point 14"}, "geometry": {"type": "Point", "coordinates": [12.472244, 41.904692]}},
  {"type": "Feature", "properties": {"name": "point 15"}, "geometry": {"type": "Point", "coordinates": [12.47187, 41.90512]}},
  {"type": "Feature", "properties": {"name": "point 16"}, "geometry": {"type": "Point", "coordinates": [12.471645, 41.904815]}},
  {"type": "Feature", "properties": {"name": "point 17"}, "geometry": {"type": "Point", "coordinates": [12.472004, 41.905215]}},
  {"type": "Feature", "properties": {"name": "point 18"}, "geometry": {"type": "Point", "coordinates": [12.471817, 41.905013]}},
  {"type": "Feature", "properties": {"name": "point 19"}, "geometry": {"type": "Point", "coordinates": [12.471602, 41.905062]}},
  {"type": "Feature", "properties": {"name": "point 20"}, "geometry": {"type": "Point", "coordinates": [12.472044, 41.905121]}},
  {"type": "Feature", "properties": {"name": "point 21"}, "geometry": {"type": "Point", "coordinates": [12.472162, 41.905283]}},
  {"type": "Feature", "properties": {"name": "point 22"}, "geometry": {"type": "Point", "coordinates": [12.47225, 41.904784]}},
  {"type": "Feature", "properties": {"name": "point 23"}, "geometry": {"type": "Point", "coordinates": [12.472269, 41.904942]}},
  {"type": "Feature", "properties": {"name": "point 24"}, "geometry": {"type": "Point", "coordinates": [12.472334, 41.904712]}},
  {"type": "Feature", "properties": {"name": "point 25"}, "geometry": {"type": "Point", "coordinates": [12.455277, 41.884832]}},
  {"type": "Feature", "properties": {"name": "point 26"}, "geometry": {"type": "Point", "coordinates": [12.454614, 41.884991]}},
  {"type": "Feature", "properties": {"name": "point 27"}, "geometry": {"type": "Point", "coordinates": [12.454621, 41.884723]}},
  {"type": "Feature", "properties": {"name": "point 28"}, "geometry": {"type": "Point", "coordinates": [12.45535, 41.884793]}},
  {"type": "Feature", "properties": {"name": "point 29"}, "geometry": {"type": "Point", "coordinates": [12.45486, 41.885091]}},
  {"type": "Feature", "properties": {"name": "point 30"}, "geometry": {"type": "Point", "coordinates": [12.455187, 41.885068]}},
  {"type": "Feature", "properties": {"name": "point 31"}, "geometry": {"type": "Point", "coordinates": [12.455246, 41.885086]}},
  {"type": "Feature", "properties": {"name": "point 32"}, "geometry": {"type": "Point", "coordinates": [12.455096, 41.884671]}},
  {"type": "Feature", "properties": {"name": "point 33"}, "geometry": {"type": "Point", "coordinates": [12.454816, 41.884664]}},
  {"type": "Feature", "properties": {"name": "point 34"}, "geometry": {"type": "Point", "coordinates": [12.45532, 41.885381]}},
  {"type": "Feature", "properties": {"name": "point 35"}, "geometry": {"type": "Point", "coordinates": [12.43, 41.895]}},
  {"type": "Feature", "properties": {"name": "point 36"}, "geometry": {"type": "Point", "coordinates": [12.49, 41.91]}},
  {"type": "Feature", "properties": {"name": "point 37"}, "geometry": {"type": "Point", "coordinates": [12.46, 41.87]}},
  {"type": "Feature", "properties": {"name": "point 38"}, "geometry": {"type": "Point", "coordinates": [12.44, 41.92]}},
  {"type": "Feature", "properties": {"name": "point 39"}, "geometry": {"type": "Point", "coordinates": [12.48, 41.88]}},
  {"type": "Feature", "properties": {"name": "point 40"}, "geometry": {"type": "Point", "coordinates": [12.42, 41.905]}}
]}
