{"type": "FeatureCollection", "features": [
  {"type": "Feature", "properties": {"name": "parcel-1", "zone": "residential", "population": 100}, "geometry": {"type": "Polygon", "coordinates": [[[12.4, 41.8], [12.44, 41.8], [12.44, 41.839999999999996], [12.4, 41.839999999999996], [12.4, 41.8]]]}},
  {"type": "Feature", "properties": {"name": "parcel-2", "zone": "commercial", "population": 137}, "geometry": {"type": "Polygon", "coordinates": [[[12.450000000000001, 41.8], [12.49, 41.8], [12.49, 41.839999999999996], [12.450000000000001, 41.839999999999996], [12.450000000000001, 41.8]]]}},
  {"type": "Feature", "properties": {"name": "parcel-3", "zone": "industrial", "population": 174}, "geometry": {"type": "Polygon", "coordinates": [[[12.5, 41.8], [12.54, 41.8], [12.54, 41.839999999999996], [12.5, 41.839999999999996], [12.5, 41.8]]]}},
  {"type": "Feature", "properties": {"name": "parcel-4", "zone": "residential", "population": 211}, "geometry": {"type": "Polygon", "coordinates": [[[12.55, 41.8], [12.59, 41.8], [12.59, 41.839999999999996], [12.55, 41.839999999999996], [12.55, 41.8]]]}},
  {"type": "Feature", "properties": {"name": "parcel-5", "zone": "commercial", "population": 248}, "geometry": {"type": "Polygon", "coordinates": [[[12.6, 41.8], [12.639999999999999, 41.8], [12.639999999999999, 41.839999999999996], [12.6, 41.839999999999996], [12.6, 41.8]]]}},
  {"type": "Feature", "properties": {"name": "parcel-6", "zone": "industrial", "population": 285}, "geometry": {"type": "Polygon", "coordinates": [[[12.4, 41.849999999999994], [12.44, 41.849999999999994], [12.44, 41.88999999999999], [12.4, 41.88999999999999], [12.4, 41.849999999999994]]]}},
  {"type": "Feature", "properties": {"name": "parcel-7", "zone": "residential", "population": 322}, "geometry": {"type": "Polygon", "coordinates": [[[12.450000000000001, 41.849999999999994], [12.49, 41.849999999999994], [12.49, 41.88999999999999], [12.450000000000001, 41.88999999999999], [12.450000000000001, 41.849999999999994]]]}},
  {"type": "Feature", "properties": {"name": "parcel-8", "zone": "commercial", "population": null}, "geometry": {"type": "Polygon", "coordinates": [[[12.5, 41.849999999999994], [12.54, 41.849999999999994], [12.54, 41.88999999999999], [12.5, 41.88999999999999], [12.5, 41.849999999999994]]]}},
  {"type": "Feature", "properties": {"name": "parcel-9", "zone": "industrial", "population": 396}, "geometry": {"type": "Polygon", "coordinates": [[[12.55, 41.849999999999994], [12.59, 41.849999999999994], [12.59, 41.88999999999999], [12.55, 41.88999999999999], [12.55, 41.849999999999994]]]}},
  {"type": "Feature", "properties": {"name": "parcel-10", "zone": "residential", "population": 433}, "geometry": {"type": "Polygon", "coordinates": [[[12.6, 41.849999999999994], [12.639999999999999, 41.849999999999994], [12.639999999999999, 41.88999999999999], [12.6, 41.88999999999999], [12.6, 41.849999999999994]]]}},
  {"type": "Feature", "properties": {"name": "parcel-11", "zone": "commercial", "population": 470}, "geometry": {"type": "Polygon", "coordinates": [[[12.4, 41.9], [12.44, 41.9], [12.44, 41.94], [12.4, 41.94], [12.4, 41.9]]]}},
  {"type": "Feature", "properties": {"name": "parcel-12", "zone": "industrial", "population": 507}, "geometry": {"type": "Polygon", "coordinates": [[[12.450000000000001, 41.9], [12.49, 41.9], [12.49, 41.94], [12.450000000000001, 41.94], [12.450000000000001, 41.9]]]}},
  {"type": "Feature", "properties": {"name": "parcel-13", "zone": "residential", "population": 544}, "geometry": {"type": "Polygon", "coordinates": [[[12.5, 41.9], [12.54, 41.9], [12.54, 41.94], [12.5, 41.94], [12.5, 41.9]]]}},
  {"type": "Feature", "properties": {"name": "parcel-14", "zone": "commercial", "population": 581}, "geometry": {"type": "Polygon", "coordinates": [[[12.55, 41.9], [12.59, 41.9], [12.59, 41.94], [12.55, 41.94], [12.55, 41.9]]]}},
  {"type": "Feature", "properties": {"name": "parcel-15", "zone": "industrial", "population": 618}, "geometry": {"type": "Polygon", "coordinates": [[[12.6, 41.9], [12.639999999999999, 41.9], [12.639999999999999, 41.94], [12.6, 41.94], [12.6, 41.9]]]}},
  {"type": "Feature", "properties": {"name": "parcel-16", "zone": "residential", "population": 655}, "geometry": {"type": "Polygon", "coordinates": [[[12.4, 41.949999999999996], [12.44, 41.949999999999996], [12.44, 41.989999999999995], [12.4, 41.989999999999995], [12.4, 41.949999999999996]]]}},
  {"type": "Feature", "properties": {"name": "parcel-17", "zone": "commercial", "population": 692}, "geometry": {"type": "Polygon", "coordinates": [[[12.450000000000001, 41.949999999999996], [12.49, 41.949999999999996], [12.49, 41.989999999999995], [12.450000000000001, 41.989999999999995], [12.450000000000001, 41.949999999999996]]]}},
  {"type": "Feature", "properties": {"name": "parcel-18", "zone": "industrial", "population": 729}, "geometry": {"type": "Polygon", "coordinates": [[[12.5, 41.949999999999996], [12.54, 41.949999999999996], [12.54, 41.989999999999995], [12.5, 41.989999999999995], [12.5, 41.949999999999996]]]}},
  {"type": "Feature", "properties": {"name": "parcel-19", "zone": "residential", "population": 766}, "geometry": {"type": "Polygon", "coordinates": [[[12.55, 41.949999999999996], [12.59, 41.949999999999996], [12.59, 41.989999999999995], [12.55, 41.989999999999995], [12.55, 41.949999999999996]]]}},
  {"type": "Feature", "properties": {"name": "parcel-20", "zone": "commercial", "population": 803}, "geometry": {"type": "Polygon", "coordinates": [[[12.6, 41.949999999999996], [12.639999999999999, 41.949999999999996], [12.639999999999999, 41.989999999999995], [12.6, 41.989999999999995], [12.6, 41.949999999999996]]]}},
  {"type": "Feature", "properties": {"name": "parcel-1-copy", "zone": "residential", "population": 100}, "geometry": {"type": "Polygon", "coordinates": [[[12.4, 41.8], [12.44, 41.8], [12.44, 41.839999999999996], [12.4, 41.839999999999996], [12.4, 41.8]]]}},
  {"type": "Feature", "properties": {"name": "bowtie (invalid)", "zone": "residential", "population": null}, "geometry": {"type": "Polygon", "coordinates": [[[12.75, 41.8], [12.85, 41.9], [12.75, 41.9], [12.85, 41.8], [12.75, 41.8]]]}}
]}
