{
"type": "FeatureCollection",
"name": "uploaded",
"crs": { "type": "name", "properties": { "name": "urn:ogc:def:crs:OGC:1.3:CRS84" } },
"features": [
{ "type": "Feature", "properties": { "id": 1, "soil_moisture_pct": 29.8 }, "geometry": { "type": "Point", "coordinates": [ 12.453830576754289, 41.890197629437182 ] } },
{ "type": "Feature", "properties": { "id": 2, "soil_moisture_pct": 28.4 }, "geometry": { "type": "Point", "coordinates": [ 12.454045541861593, 41.889818644321529 ] } },
{ "type": "Feature", "properties": { "id": 3, "soil_moisture_pct": 24.9 }, "geometry": { "type": "Point", "coordinates": [ 12.447762090546222, 41.888473740380682 ] } },
{ "type": "Feature", "properties": { "id": 4, "soil_moisture_pct": 26.6 }, "geometry": { "type": "Point", "coordinates": [ 12.453016269191201, 41.890270309084634 ] } },
{ "type": "Feature", "properties": { "id": 5, "soil_moisture_pct": 35.9 }, "geometry": { "type": "Point", "coordinates": [ 12.451194737235936, 41.88835899153608 ] } },
{ "type": "Feature", "properties": { "id": 6, "soil_moisture_pct": 29.7 }, "geometry": { "type": "Point", "coordinates": [ 12.45001080710411, 41.886809809360969 ] } },
{ "type": "Feature", "properties": { "id": 7, "soil_moisture_pct": 22.8 }, "geometry": { "type": "Point", "coordinates": [ 12.452110249975931, 41.886882114609413 ] } },
{ "type": "Feature", "properties": { "id": 8, "soil_moisture_pct": 31.5 }, "geometry": { "type": "Point", "coordinates": [ 12.446299929893994, 41.887162938726746 ] } },
{ "type": "Feature", "properties": { "id": 9, "soil_moisture_pct": 33.9 }, "geometry": { "type": "Point", "coordinates": [ 12.451341913554916, 41.889259233448655 ] } },
{ "type": "Feature", "properties": { "id": 10, "soil_moisture_pct": 23.8 }, "geometry": { "type": "Point", "coordinates": [ 12.451805954919568, 41.885211343356922 ] } },
{ "type": "Feature", "properties": { "id": 11, "soil_moisture_pct": 24.4 }, "geometry": { "type": "Point", "coordinates": [ 12.449418558357308, 41.88906438602951 ] } },
{ "type": "Feature", "properties": { "id": 12, "soil_moisture_pct": 33.9 }, "geometry": { "type": "Point", "coordinates": [ 12.451941554418351, 41.888676190502203 ] } },
{ "type": "Feature", "properties": { "id": 13, "soil_moisture_pct": 19.9 }, "geometry": { "type": "Point", "coordinates": [ 12.45402234421959, 41.885929605556669 ] } },
{ "type": "Feature", "properties": { "id": 14, "soil_moisture_pct": 27.3 }, "geometry": { "type": "Point", "coordinates": [ 12.447465641601994, 41.886417159202949 ] } },
{ "type": "Feature", "properties": { "id": 15, "soil_moisture_pct": 30.7 }, "geometry": { "type": "Point", "coordinates": [ 12.449462489378432, 41.887792181660892 ] } },
{ "type": "Feature", "properties": { "id": 16, "soil_moisture_pct": 23.6 }, "geometry": { "type": "Point", "coordinates": [ 12.454073912937449, 41.888667128321977 ] } },
{ "type": "Feature", "properties": { "id": 17, "soil_moisture_pct": 31.5 }, "geometry": { "type": "Point", "coordinates": [ 12.454442770541741, 41.890334632881761 ] } },
{ "type": "Feature", "properties": { "id": 18, "soil_moisture_pct": 25.9 }, "geometry": { "type": "Point", "coordinates": [ 12.44613409959644, 41.889122729876341 ] } },
{ "type": "Feature", "properties": { "id": 19, "soil_moisture_pct": 32.2 }, "geometry": { "type": "Point", "coordinates": [ 12.449585122952136, 41.888074842178845 ] } },
{ "type": "Feature", "properties": { "id": 20, "soil_moisture_pct": 26.5 }, "geometry": { "type": "Point", "coordinates": [ 12.450408863833854, 41.889612030316094 ] } },
{ "type": "Feature", "properties": { "id": 21, "soil_moisture_pct": 21.2 }, "geometry": { "type": "Point", "coordinates": [ 12.453726569539599, 41.886028445460845 ] } },
{ "type": "Feature", "properties": { "id": 22, "soil_moisture_pct": 33.5 }, "geometry": { "type": "Point", "coordinates": [ 12.44633896227665, 41.886472516453978 ] } },
{ "type": "Feature", "properties": { "id": 23, "soil_moisture_pct": 30.4 }, "geometry": { "type": "Point", "coordinates": [ 12.454545722151705, 41.889495160947554 ] } },
{ "type": "Feature", "properties": { "id": 24, "soil_moisture_pct": 26.0 }, "geometry": { "type": "Point", "coordinates": [ 12.454138140863721, 41.888762646030699 ] } },
{ "type": "Feature", "properties": { "id": 25, "soil_moisture_pct": 33.0 }, "geometry": { "type": "Point", "coordinates": [ 12.445795765604535, 41.886305652648694 ] } },
{ "type": "Feature", "properties": { "id": 26, "soil_moisture_pct": 21.6 }, "geometry": { "type": "Point", "coordinates": [ 12.449963660506992, 41.885233338860246 ] } },
{ "type": "Feature", "properties": { "id": 27, "soil_moisture_pct": 23.5 }, "geometry": { "type": "Point", "coordinates": [ 12.448766614454019, 41.885762506391075 ] } },
{ "type": "Feature", "properties": { "id": 28, "soil_moisture_pct": 20.2 }, "geometry": { "type": "Point", "coordinates": [ 12.453743044649903, 41.886174518265186 ] } },
{ "type": "Feature", "properties": { "id": 29, "soil_moisture_pct": 28.6 }, "geometry": { "type": "Point", "coordinates": [ 12.449314575352714, 41.887602127180401 ] } },
{ "type": "Feature", "properties": { "id": 30, "soil_moisture_pct": 18.6 }, "geometry": { "type": "Point", "coordinates": [ 12.453069907099206, 41.886071523479011 ] } },
{ "type": "Feature", "properties": { "id": 31, "soil_moisture_pct": 33.3 }, "geometry": { "type": "Point", "coordinates": [ 12.452119973422411, 41.888904591121808 ] } },
{ "type": "Feature", "properties": { "id": 32, "soil_moisture_pct": 21.1 }, "geometry": { "type": "Point", "coordinates": [ 12.452829074510218, 41.885042797568666 ] } },
{ "type": "Feature", "properties": { "id": 33, "soil_moisture_pct": 29.7 }, "geometry": { "type": "Point", "coordinates": [ 12.448746389745393, 41.887038121754742 ] } },
{ "type": "Feature", "properties": { "id": 34, "soil_moisture_pct": 29.8 }, "geometry": { "type": "Point", "coordinates": [ 12.45161390895724, 41.887792153292793 ] } },
{ "type": "Feature", "properties": { "id": 35, "soil_moisture_pct": 30.5 }, "geometry": { "type": "Point", "coordinates": [ 12.445038113115926, 41.885008524810296 ] } },
{ "type": "Feature", "properties": { "id": 36, "soil_moisture_pct": 26.2 }, "geometry": { "type": "Point", "coordinates": [ 12.453040097055379, 41.88815688801796 ] } },
{ "type": "Feature", "properties": { "id": 37, "soil_moisture_pct": 30.2 }, "geometry": { "type": "Point", "coordinates": [ 12.445070796151189, 41.885857093585194 ] } },
{ "type": "Feature", "properties": { "id": 38, "soil_moisture_pct": 31.2 }, "geometry": { "type": "Point", "coordinates": [ 12.447004521626498, 41.886948769527002 ] } },
{ "type": "Feature", "properties": { "id": 39, "soil_moisture_pct": 23.3 }, "geometry": { "type": "Point", "coordinates": [ 12.453751377818307, 41.888504424887302 ] } },
{ "type": "Feature", "properties": { "id": 40, "soil_moisture_pct": 30.3 }, "geometry": { "type": "Point", "coordinates": [ 12.450905468493577, 41.889211091166835 ] } },
{ "type": "Feature", "properties": { "id": 41, "soil_moisture_pct": 26.5 }, "geometry": { "type": "Point", "coordinates": [ 12.448663866270001, 41.888059418354771 ] } },
{ "type": "Feature", "properties": { "id": 42, "soil_moisture_pct": 25.5 }, "geometry": { "type": "Point", "coordinates": [ 12.449206481205312, 41.886268518537783 ] } },
{ "type": "Feature", "properties": { "id": 43, "soil_moisture_pct": 32.7 }, "geometry": { "type": "Point", "coordinates": [ 12.445361319878716, 41.885488405190969 ] } },
{ "type": "Feature", "properties": { "id": 44, "soil_moisture_pct": 22.4 }, "geometry": { "type": "Point", "coordinates": [ 12.454397531851743, 41.885464693676091 ] } },
{ "type": "Feature", "properties": { "id": 45, "soil_moisture_pct": 29.1 }, "geometry": { "type": "Point", "coordinates": [ 12.449167673103178, 41.886656694605392 ] } }
]
}
