{"type": "FeatureCollection", "features": [
  {"type": "Feature", "properties": {"name": "site 1 point 1", "class": "south"}, "geometry": {"type": "Point", "coordinates": [12.445568181818182, 41.88564615384615]}},
  {"type": "Feature", "properties": {"name": "site 1 point 2", "class": "south"}, "geometry": {"type": "Point", "coordinates": [12.445868181818183, 41.88574215384615]}},
  {"type": "Feature", "properties": {"name": "site 1 point 3", "class": "south"}, "geometry": {"type": "Point", "coordinates": [12.445388181818181, 41.885862153846155]}},
  {"type": "Feature", "properties": {"name": "site 1 point 4", "class": "south"}, "geometry": {"type": "Point", "coordinates": [12.445328181818182, 41.88547815384615]}},
  {"type": "Feature", "properties": {"name": "site 1 point 5", "class": "south"}, "geometry": {"type": "Point", "coordinates": [12.445718181818181, 41.885406153846155]}},
  {"type": "Feature", "properties": {"name": "site 2 point 1", "class": "south"}, "geometry": {"type": "Point", "coordinates": [12.448613636363637, 41.88573846153846]}},
  {"type": "Feature", "properties": {"name": "site 2 point 2", "class": "south"}, "geometry": {"type": "Point", "coordinates": [12.448913636363637, 41.88583446153846]}},
  {"type": "Feature", "properties": {"name": "site 2 point 3", "class": "south"}, "geometry": {"type": "Point", "coordinates": [12.448433636363637, 41.88595446153846]}},
  {"type": "Feature", "properties": {"name": "site 2 point 4", "class": "south"}, "geometry": {"type": "Point", "coordinates": [12.448373636363637, 41.88557046153846]}},
  {"type": "Feature", "properties": {"name": "site 2 point 5", "class": "south"}, "geometry": {"type": "Point", "coordinates": [12.448763636363637, 41.88549846153846]}},
  {"type": "Feature", "properties": {"name": "site 3 point 1", "class": "centre"}, "geometry": {"type": "Point", "coordinates": [12.451659090909091, 41.885830769230765]}},
  {"type": "Feature", "properties": {"name": "site 3 point 2", "class": "centre"}, "geometry": {"type": "Point", "coordinates": [12.45195909090909, 41.885926769230764]}},
  {"type": "Feature", "properties": {"name": "site 3 point 3", "class": "centre"}, "geometry": {"type": "Point", "coordinates": [12.45147909090909, 41.88604676923077]}},
  {"type": "Feature", "properties": {"name": "site 3 point 4", "class": "centre"}, "geometry": {"type": "Point", "coordinates": [12.451419090909091, 41.88566276923077]}},
  {"type": "Feature", "properties": {"name": "site 3 point 5", "class": "centre"}, "geometry": {"type": "Point", "coordinates": [12.45180909090909, 41.88559076923077]}},
  {"type": "Feature", "properties": {"name": "site 4 point 1", "class": "south"}, "geometry": {"type": "Point", "coordinates": [12.453204545454545, 41.88592307692308]}},
  {"type": "Feature", "properties": {"name": "site 4 point 2", "class": "south"}, "geometry": {"type": "Point", "coordinates": [12.453504545454546, 41.88601907692308]}},
  {"type": "Feature", "properties": {"name": "site 4 point 3", "class": "south"}, "geometry": {"type": "Point", "coordinates": [12.453024545454547, 41.88613907692307]}},
  {"type": "Feature", "properties": {"name": "site 4 point 4", "class": "south"}, "geometry": {"type": "Point", "coordinates": [12.452964545454545, 41.885755076923076]}},
  {"type": "Feature", "properties": {"name": "site 4 point 5", "class": "south"}, "geometry": {"type": "Point", "coordinates": [12.453354545454546, 41.88568307692307]}},
  {"type": "Feature", "properties": {"name": "site 5 point 1", "class": "south"}, "geometry": {"type": "Point", "coordinates": [12.45625, 41.88601538461538]}},
  {"type": "Feature", "properties": {"name": "site 5 point 2", "class": "south"}, "geometry": {"type": "Point", "coordinates": [12.45655, 41.88611138461538]}},
  {"type": "Feature", "properties": {"name": "site 5 point 3", "class": "south"}, "geometry": {"type": "Point", "coordinates": [12.45607, 41.886231384615385]}},
  {"type": "Feature", "properties": {"name": "site 5 point 4", "class": "south"}, "geometry": {"type": "Point", "coordinates": [12.456010000000001, 41.88584738461538]}},
  {"type": "Feature", "properties": {"name": "site 5 point 5", "class": "south"}, "geometry": {"type": "Point", "coordinates": [12.4564, 41.885775384615386]}},
  {"type": "Feature", "properties": {"name": "site 6 point 1", "class": "south"}, "geometry": {"type": "Point", "coordinates": [12.459295454545455, 41.88610769230769]}},
  {"type": "Feature", "properties": {"name": "site 6 point 2", "class": "south"}, "geometry": {"type": "Point", "coordinates": [12.459595454545456, 41.88620369230769]}},
  {"type": "Feature", "properties": {"name": "site 6 point 3", "class": "south"}, "geometry": {"type": "Point", "coordinates": [12.459115454545454, 41.88632369230769]}},
  {"type": "Feature", "properties": {"name": "site 6 point 4", "class": "south"}, "geometry": {"type": "Point", "coordinates": [12.459055454545455, 41.88593969230769]}},
  {"type": "Feature", "properties": {"name": "site 6 point 5", "class": "south"}, "geometry": {"type": "Point", "coordinates": [12.459445454545454, 41.88586769230769]}},
  {"type": "Feature", "properties": {"name": "site 7 point 1", "class": "south"}, "geometry": {"type": "Point", "coordinates": [12.44584090909091, 41.8886]}},
  {"type": "Feature", "properties": {"name": "site 7 point 2", "class": "centre"}, "geometry": {"type": "Point", "coordinates": [12.446140909090909, 41.888695999999996]}},
  {"type": "Feature", "properties": {"name": "site 7 point 3", "class": "south"}, "geometry": {"type": "Point", "coordinates": [12.44566090909091, 41.888816]}},
  {"type": "Feature", "properties": {"name": "site 7 point 4", "class": "south"}, "geometry": {"type": "Point", "coordinates": [12.44560090909091, 41.888431999999995]}},
  {"type": "Feature", "properties": {"name": "site 7 point 5", "class": "south"}, "geometry": {"type": "Point", "coordinates": [12.44599090909091, 41.88836]}},
  {"type": "Feature", "properties": {"name": "site 8 point 1", "class": "centre"}, "geometry": {"type": "Point", "coordinates": [12.448886363636364, 41.8886923076923]}},
  {"type": "Feature", "properties": {"name": "site 8 point 2", "class": "centre"}, "geometry": {"type": "Point", "coordinates": [12.449186363636365, 41.88878830769231]}},
  {"type": "Feature", "properties": {"name": "site 8 point 3", "class": "centre"}, "geometry": {"type": "Point", "coordinates": [12.448706363636363, 41.888908307692304]}},
  {"type": "Feature", "properties": {"name": "site 8 point 4", "class": "centre"}, "geometry": {"type": "Point", "coordinates": [12.448646363636364, 41.88852430769231]}},
  {"type": "Feature", "properties": {"name": "site 8 point 5", "class": "centre"}, "geometry": {"type": "Point", "coordinates": [12.449036363636363, 41.888452307692305]}},
  {"type": "Feature", "properties": {"name": "site 9 point 1", "class": "centre"}, "geometry": {"type": "Point", "coordinates": [12.45193181818182, 41.888784615384616]}},
  {"type": "Feature", "properties": {"name": "site 9 point 2", "class": "south"}, "geometry": {"type": "Point", "coordinates": [12.452231818181819, 41.888880615384615]}},
  {"type": "Feature", "properties": {"name": "site 9 point 3", "class": "centre"}, "geometry": {"type": "Point", "coordinates": [12.451751818181819, 41.88900061538461]}},
  {"type": "Feature", "properties": {"name": "site 9 point 4", "class": "centre"}, "geometry": {"type": "Point", "coordinates": [12.451691818181818, 41.88861661538461]}},
  {"type": "Feature", "properties": {"name": "site 9 point 5", "class": "south"}, "geometry": {"type": "Point", "coordinates": [12.452081818181819, 41.88854461538461]}},
  {"type": "Feature", "properties": {"name": "site 10 point 1", "class": "south"}, "geometry": {"type": "Point", "coordinates": [12.453477272727273, 41.88887692307692]}},
  {"type": "Feature", "properties": {"name": "site 10 point 2", "class": "south"}, "geometry": {"type": "Point", "coordinates": [12.453777272727272, 41.88897292307692]}},
  {"type": "Feature", "properties": {"name": "site 10 point 3", "class": "south"}, "geometry": {"type": "Point", "coordinates": [12.453297272727273, 41.88909292307692]}},
  {"type": "Feature", "properties": {"name": "site 10 point 4", "class": "south"}, "geometry": {"type": "Point", "coordinates": [12.453237272727273, 41.88870892307692]}},
  {"type": "Feature", "properties": {"name": "site 10 point 5", "class": "south"}, "geometry": {"type": "Point", "coordinates": [12.453627272727273, 41.88863692307692]}},
  {"type": "Feature", "properties": {"name": "site 11 point 1", "class": "south"}, "geometry": {"type": "Point", "coordinates": [12.456522727272727, 41.88896923076923]}},
  {"type": "Feature", "properties": {"name": "site 11 point 2", "class": "south"}, "geometry": {"type": "Point", "coordinates": [12.456822727272728, 41.889065230769226]}},
  {"type": "Feature", "properties": {"name": "site 11 point 3", "class": "south"}, "geometry": {"type": "Point", "coordinates": [12.456342727272727, 41.88918523076923]}},
  {"type": "Feature", "properties": {"name": "site 11 point 4", "class": "south"}, "geometry": {"type": "Point", "coordinates": [12.456282727272727, 41.88880123076923]}},
  {"type": "Feature", "properties": {"name": "site 11 point 5", "class": "south"}, "geometry": {"type": "Point", "coordinates": [12.456672727272727, 41.88872923076923]}},
  {"type": "Feature", "properties": {"name": "site 12 point 1", "class": "centre"}, "geometry": {"type": "Point", "coordinates": [12.458068181818183, 41.88906153846153]}},
  {"type": "Feature", "properties": {"name": "site 12 point 2", "class": "centre"}, "geometry": {"type": "Point", "coordinates": [12.458368181818182, 41.88915753846154]}},
  {"type": "Feature", "properties": {"name": "site 12 point 3", "class": "centre"}, "geometry": {"type": "Point", "coordinates": [12.457888181818182, 41.889277538461535]}},
  {"type": "Feature", "properties": {"name": "site 12 point 4", "class": "south"}, "geometry": {"type": "Point", "coordinates": [12.457828181818183, 41.88889353846154]}},
  {"type": "Feature", "properties": {"name": "site 12 point 5", "class": "centre"}, "geometry": {"type": "Point", "coordinates": [12.458218181818182, 41.888821538461535]}},
  {"type": "Feature", "properties": {"name": "site 13 point 1", "class": "north"}, "geometry": {"type": "Point", "coordinates": [12.446113636363636, 41.89155384615385]}},
  {"type": "Feature", "properties": {"name": "site 13 point 2", "class": "south"}, "geometry": {"type": "Point", "coordinates": [12.446413636363637, 41.89164984615385]}},
  {"type": "Feature", "properties": {"name": "site 13 point 3", "class": "north"}, "geometry": {"type": "Point", "coordinates": [12.445933636363637, 41.89176984615384]}},
  {"type": "Feature", "properties": {"name": "site 13 point 4", "class": "north"}, "geometry": {"type": "Point", "coordinates": [12.445873636363636, 41.891385846153845]}},
  {"type": "Feature", "properties": {"name": "site 13 point 5", "class": "north"}, "geometry": {"type": "Point", "coordinates": [12.446263636363637, 41.89131384615384]}},
  {"type": "Feature", "properties": {"name": "site 14 point 1", "class": "south"}, "geometry": {"type": "Point", "coordinates": [12.449159090909092, 41.89044615384615]}},
  {"type": "Feature", "properties": {"name": "site 14 point 2", "class": "centre"}, "geometry": {"type": "Point", "coordinates": [12.449459090909091, 41.890542153846155]}},
  {"type": "Feature", "properties": {"name": "site 14 point 3", "class": "south"}, "geometry": {"type": "Point", "coordinates": [12.448979090909091, 41.89066215384615]}},
  {"type": "Feature", "properties": {"name": "site 14 point 4", "class": "south"}, "geometry": {"type": "Point", "coordinates": [12.448919090909092, 41.890278153846154]}},
  {"type": "Feature", "properties": {"name": "site 14 point 5", "class": "south"}, "geometry": {"type": "Point", "coordinates": [12.449309090909091, 41.89020615384615]}},
  {"type": "Feature", "properties": {"name": "site 15 point 1", "class": "north"}, "geometry": {"type": "Point", "coordinates": [12.450704545454546, 41.89053846153846]}},
  {"type": "Feature", "properties": {"name": "site 15 point 2", "class": "north"}, "geometry": {"type": "Point", "coordinates": [12.451004545454547, 41.89063446153846]}},
  {"type": "Feature", "properties": {"name": "site 15 point 3", "class": "centre"}, "geometry": {"type": "Point", "coordinates": [12.450524545454545, 41.89075446153846]}},
  {"type": "Feature", "properties": {"name": "site 15 point 4", "class": "centre"}, "geometry": {"type": "Point", "coordinates": [12.450464545454546, 41.89037046153846]}},
  {"type": "Feature", "properties": {"name": "site 15 point 5", "class": "north"}, "geometry": {"type": "Point", "coordinates": [12.450854545454545, 41.89029846153846]}},
  {"type": "Feature", "properties": {"name": "site 16 point 1", "class": "centre"}, "geometry": {"type": "Point", "coordinates": [12.45375, 41.89063076923077]}},
  {"type": "Feature", "properties": {"name": "site 16 point 2", "class": "centre"}, "geometry": {"type": "Point", "coordinates": [12.45405, 41.89072676923077]}},
  {"type": "Feature", "properties": {"name": "site 16 point 3", "class": "centre"}, "geometry": {"type": "Point", "coordinates": [12.453570000000001, 41.89084676923077]}},
  {"type": "Feature", "properties": {"name": "site 16 point 4", "class": "centre"}, "geometry": {"type": "Point", "coordinates": [12.45351, 41.890462769230766]}},
  {"type": "Feature", "properties": {"name": "site 16 point 5", "class": "centre"}, "geometry": {"type": "Point", "coordinates": [12.4539, 41.89039076923077]}},
  {"type": "Feature", "properties": {"name": "site 17 point 1", "class": "centre"}, "geometry": {"type": "Point", "coordinates": [12.456795454545455, 41.890723076923074]}},
  {"type": "Feature", "properties": {"name": "site 17 point 2", "class": "centre"}, "geometry": {"type": "Point", "coordinates": [12.457095454545454, 41.89081907692307]}},
  {"type": "Feature", "properties": {"name": "site 17 point 3", "class": "centre"}, "geometry": {"type": "Point", "coordinates": [12.456615454545455, 41.890939076923075]}},
  {"type": "Feature", "properties": {"name": "site 17 point 4", "class": "centre"}, "geometry": {"type": "Point", "coordinates": [12.456555454545455, 41.89055507692307]}},
  {"type": "Feature", "properties": {"name": "site 17 point 5", "class": "south"}, "geometry": {"type": "Point", "coordinates": [12.456945454545455, 41.890483076923076]}},
  {"type": "Feature", "properties": {"name": "site 18 point 1", "class": "north"}, "geometry": {"type": "Point", "coordinates": [12.458340909090909, 41.89081538461538]}},
  {"type": "Feature", "properties": {"name": "site 18 point 2", "class": "south"}, "geometry": {"type": "Point", "coordinates": [12.45864090909091, 41.890911384615386]}},
  {"type": "Feature", "properties": {"name": "site 18 point 3", "class": "north"}, "geometry": {"type": "Point", "coordinates": [12.458160909090909, 41.89103138461538]}},
  {"type": "Feature", "properties": {"name": "site 18 point 4", "class": "north"}, "geometry": {"type": "Point", "coordinates": [12.45810090909091, 41.890647384615384]}},
  {"type": "Feature", "properties": {"name": "site 18 point 5", "class": "north"}, "geometry": {"type": "Point", "coordinates": [12.458490909090909, 41.89057538461538]}},
  {"type": "Feature", "properties": {"name": "site 19 point 1", "class": "north"}, "geometry": {"type": "Point", "coordinates": [12.446386363636364, 41.89330769230769]}},
  {"type": "Feature", "properties": {"name": "site 19 point 2", "class": "north"}, "geometry": {"type": "Point", "coordinates": [12.446686363636363, 41.89340369230769]}},
  {"type": "Feature", "properties": {"name": "site 19 point 3", "class": "north"}, "geometry": {"type": "Point", "coordinates": [12.446206363636364, 41.89352369230769]}},
  {"type": "Feature", "properties": {"name": "site 19 point 4", "class": "north"}, "geometry": {"type": "Point", "coordinates": [12.446146363636364, 41.89313969230769]}},
  {"type": "Feature", "properties": {"name": "site 19 point 5", "class": "north"}, "geometry": {"type": "Point", "coordinates": [12.446536363636364, 41.89306769230769]}},
  {"type": "Feature", "properties": {"name": "site 20 point 1", "class": "centre"}, "geometry": {"type": "Point", "coordinates": [12.449431818181818, 41.8934]}},
  {"type": "Feature", "properties": {"name": "site 20 point 2", "class": "north"}, "geometry": {"type": "Point", "coordinates": [12.449731818181819, 41.893496]}},
  {"type": "Feature", "properties": {"name": "site 20 point 3", "class": "centre"}, "geometry": {"type": "Point", "coordinates": [12.449251818181818, 41.893616]}},
  {"type": "Feature", "properties": {"name": "site 20 point 4", "class": "centre"}, "geometry": {"type": "Point", "coordinates": [12.449191818181818, 41.893232]}},
  {"type": "Feature", "properties": {"name": "site 20 point 5", "class": "centre"}, "geometry": {"type": "Point", "coordinates": [12.449581818181818, 41.893159999999995]}},
  {"type": "Feature", "properties": {"name": "site 21 point 1", "class": "north"}, "geometry": {"type": "Point", "coordinates": [12.450977272727274, 41.893492307692306]}},
  {"type": "Feature", "properties": {"name": "site 21 point 2", "class": "north"}, "geometry": {"type": "Point", "coordinates": [12.451277272727273, 41.893588307692305]}},
  {"type": "Feature", "properties": {"name": "site 21 point 3", "class": "north"}, "geometry": {"type": "Point", "coordinates": [12.450797272727273, 41.89370830769231]}},
  {"type": "Feature", "properties": {"name": "site 21 point 4", "class": "north"}, "geometry": {"type": "Point", "coordinates": [12.450737272727274, 41.8933243076923]}},
  {"type": "Feature", "properties": {"name": "site 21 point 5", "class": "north"}, "geometry": {"type": "Point", "coordinates": [12.451127272727273, 41.89325230769231]}},
  {"type": "Feature", "properties": {"name": "site 22 point 1", "class": "north"}, "geometry": {"type": "Point", "coordinates": [12.454022727272728, 41.89358461538461]}},
  {"type": "Feature", "properties": {"name": "site 22 point 2", "class": "north"}, "geometry": {"type": "Point", "coordinates": [12.454322727272727, 41.89368061538461]}},
  {"type": "Feature", "properties": {"name": "site 22 point 3", "class": "north"}, "geometry": {"type": "Point", "coordinates": [12.453842727272727, 41.89380061538461]}},
  {"type": "Feature", "properties": {"name": "site 22 point 4", "class": "north"}, "geometry": {"type": "Point", "coordinates": [12.453782727272728, 41.893416615384616]}},
  {"type": "Feature", "properties": {"name": "site 22 point 5", "class": "north"}, "geometry": {"type": "Point", "coordinates": [12.454172727272727, 41.89334461538461]}},
  {"type": "Feature", "properties": {"name": "site 23 point 1", "class": "south"}, "geometry": {"type": "Point", "coordinates": [12.455568181818181, 41.893676923076924]}},
  {"type": "Feature", "properties": {"name": "site 23 point 2", "class": "south"}, "geometry": {"type": "Point", "coordinates": [12.455868181818182, 41.893772923076924]}},
  {"type": "Feature", "properties": {"name": "site 23 point 3", "class": "south"}, "geometry": {"type": "Point", "coordinates": [12.455388181818183, 41.89389292307692]}},
  {"type": "Feature", "properties": {"name": "site 23 point 4", "class": "south"}, "geometry": {"type": "Point", "coordinates": [12.455328181818182, 41.89350892307692]}},
  {"type": "Feature", "properties": {"name": "site 23 point 5", "class": "south"}, "geometry": {"type": "Point", "coordinates": [12.455718181818183, 41.89343692307692]}},
  {"type": "Feature", "properties": {"name": "site 24 point 1", "class": "north"}, "geometry": {"type": "Point", "coordinates": [12.458613636363637, 41.89376923076923]}},
  {"type": "Feature", "properties": {"name": "site 24 point 2", "class": "north"}, "geometry": {"type": "Point", "coordinates": [12.458913636363636, 41.89386523076923]}},
  {"type": "Feature", "properties": {"name": "site 24 point 3", "class": "north"}, "geometry": {"type": "Point", "coordinates": [12.458433636363637, 41.89398523076923]}},
  {"type": "Feature", "properties": {"name": "site 24 point 4", "class": "north"}, "geometry": {"type": "Point", "coordinates": [12.458373636363637, 41.89360123076923]}},
  {"type": "Feature", "properties": {"name": "site 24 point 5", "class": "north"}, "geometry": {"type": "Point", "coordinates": [12.458763636363637, 41.89352923076923]}},
  {"type": "Feature", "properties": {"name": "site 25 point 1", "class": "north"}, "geometry": {"type": "Point", "coordinates": [12.44665909090909, 41.89626153846154]}},
  {"type": "Feature", "properties": {"name": "site 25 point 2", "class": "north"}, "geometry": {"type": "Point", "coordinates": [12.446959090909091, 41.89635753846154]}},
  {"type": "Feature", "properties": {"name": "site 25 point 3", "class": "north"}, "geometry": {"type": "Point", "coordinates": [12.446479090909092, 41.89647753846154]}},
  {"type": "Feature", "properties": {"name": "site 25 point 4", "class": "north"}, "geometry": {"type": "Point", "coordinates": [12.44641909090909, 41.896093538461535]}},
  {"type": "Feature", "properties": {"name": "site 25 point 5", "class": "north"}, "geometry": {"type": "Point", "coordinates": [12.446809090909092, 41.89602153846154]}},
  {"type": "Feature", "properties": {"name": "site 26 point 1", "class": "north"}, "geometry": {"type": "Point", "coordinates": [12.448204545454546, 41.89635384615384]}},
  {"type": "Feature", "properties": {"name": "site 26 point 2", "class": "north"}, "geometry": {"type": "Point", "coordinates": [12.448504545454545, 41.89644984615384]}},
  {"type": "Feature", "properties": {"name": "site 26 point 3", "class": "north"}, "geometry": {"type": "Point", "coordinates": [12.448024545454546, 41.896569846153845]}},
  {"type": "Feature", "properties": {"name": "site 26 point 4", "class": "north"}, "geometry": {"type": "Point", "coordinates": [12.447964545454546, 41.89618584615384]}},
  {"type": "Feature", "properties": {"name": "site 26 point 5", "class": "north"}, "geometry": {"type": "Point", "coordinates": [12.448354545454546, 41.896113846153845]}},
  {"type": "Feature", "properties": {"name": "site 27 point 1", "class": "north"}, "geometry": {"type": "Point", "coordinates": [12.45125, 41.89524615384615]}},
  {"type": "Feature", "properties": {"name": "site 27 point 2", "class": "north"}, "geometry": {"type": "Point", "coordinates": [12.451550000000001, 41.89534215384615]}},
  {"type": "Feature", "properties": {"name": "site 27 point 3", "class": "north"}, "geometry": {"type": "Point", "coordinates": [12.45107, 41.895462153846154]}},
  {"type": "Feature", "properties": {"name": "site 27 point 4", "class": "north"}, "geometry": {"type": "Point", "coordinates": [12.45101, 41.89507815384615]}},
  {"type": "Feature", "properties": {"name": "site 27 point 5", "class": "north"}, "geometry": {"type": "Point", "coordinates": [12.4514, 41.895006153846154]}},
  {"type": "Feature", "properties": {"name": "site 28 point 1", "class": "south"}, "geometry": {"type": "Point", "coordinates": [12.454295454545456, 41.89533846153846]}},
  {"type": "Feature", "properties": {"name": "site 28 point 2", "class": "south"}, "geometry": {"type": "Point", "coordinates": [12.454595454545455, 41.89543446153846]}},
  {"type": "Feature", "properties": {"name": "site 28 point 3", "class": "south"}, "geometry": {"type": "Point", "coordinates": [12.454115454545455, 41.89555446153846]}},
  {"type": "Feature", "properties": {"name": "site 28 point 4", "class": "south"}, "geometry": {"type": "Point", "coordinates": [12.454055454545454, 41.89517046153846]}},
  {"type": "Feature", "properties": {"name": "site 28 point 5", "class": "south"}, "geometry": {"type": "Point", "coordinates": [12.454445454545455, 41.89509846153846]}},
  {"type": "Feature", "properties": {"name": "site 29 point 1", "class": "north"}, "geometry": {"type": "Point", "coordinates": [12.45584090909091, 41.895430769230764]}},
  {"type": "Feature", "properties": {"name": "site 29 point 2", "class": "north"}, "geometry": {"type": "Point", "coordinates": [12.456140909090909, 41.89552676923077]}},
  {"type": "Feature", "properties": {"name": "site 29 point 3", "class": "north"}, "geometry": {"type": "Point", "coordinates": [12.45566090909091, 41.895646769230765]}},
  {"type": "Feature", "properties": {"name": "site 29 point 4", "class": "north"}, "geometry": {"type": "Point", "coordinates": [12.45560090909091, 41.89526276923077]}},
  {"type": "Feature", "properties": {"name": "site 29 point 5", "class": "north"}, "geometry": {"type": "Point", "coordinates": [12.45599090909091, 41.895190769230766]}},
  {"type": "Feature", "properties": {"name": "site 30 point 1", "class": "north"}, "geometry": {"type": "Point", "coordinates": [12.458886363636363, 41.89552307692308]}},
  {"type": "Feature", "properties": {"name": "site 30 point 2", "class": "north"}, "geometry": {"type": "Point", "coordinates": [12.459186363636364, 41.895619076923076]}},
  {"type": "Feature", "properties": {"name": "site 30 point 3", "class": "north"}, "geometry": {"type": "Point", "coordinates": [12.458706363636363, 41.89573907692308]}},
  {"type": "Feature", "properties": {"name": "site 30 point 4", "class": "north"}, "geometry": {"type": "Point", "coordinates": [12.458646363636364, 41.895355076923074]}},
  {"type": "Feature", "properties": {"name": "site 30 point 5", "class": "north"}, "geometry": {"type": "Point", "coordinates": [12.459036363636365, 41.89528307692307]}}
]}
